NORAD_CAT_ID,OBJECT_NAME,OBJECT_TYPE,EPOCH,MEAN_MOTION,ECCENTRICITY,INCLINATION,RA_OF_ASC_NODE,ARG_OF_PERICENTER,MEAN_ANOMALY,BSTAR,MEAN_MOTION_DOT,MEAN_MOTION_DDOT,TLE_LINE0,TLE_LINE1,TLE_LINE2,SEMIMAJOR_AXIS,PERIOD,APOGEE,PERIGEE,DECAYED
52380.0,STARLINK-3793,PAYLOAD,2024-02-07 21:16:55,15.08842452,0.0001442,53.2191,354.5295,91.2987,268.817,-7.7444e-05,-1.52e-05,0.0,0 STARLINK-3793,1 52380U 22045BB  24038.88674954 -.00001520  00000-0 -77444-4 0  9999,2 52380  53.2191 354.5295 0001442  91.2987 268.8170 15.08842452101206,6917.873,95.437,540.735,538.74,0.0
52380.0,STARLINK-3793,PAYLOAD,2024-02-08 06:49:13,15.08846045,0.0001473,53.2188,352.7433,84.9343,275.1818,-1.56e-05,-5.36e-06,0.0,0 STARLINK-3793,1 52380U 22045BB  24039.28418535 -.00000536  00000-0 -15600-4 0  9997,2 52380  53.2188 352.7433 0001473  84.9343 275.1818 15.08846045101263,6917.862,95.437,540.746,538.708,0.0
52380.0,STARLINK-3793,PAYLOAD,2024-02-08 21:07:42,15.08832555,0.0001512,53.2182,350.0664,112.0532,248.0621,2.8429e-05,1.64e-06,0.0,0 STARLINK-3793,1 52380U 22045BB  24039.88035363  .00000164  00000-0  28429-4 0  9995,2 52380  53.2182 350.0664 0001512 112.0532 248.0621 15.08832555101353,6917.903,95.438,540.814,538.722,0.0
52380.0,STARLINK-3793,PAYLOAD,2024-02-09 01:53:51,15.08843826,0.000156,53.2191,349.1793,102.6572,257.4594,0.00011159,1.489e-05,0.0,0 STARLINK-3793,1 52380U 22045BB  24040.07906565  .00001489  00000-0  11159-3 0  9991,2 52380  53.2191 349.1793 0001560 102.6572 257.4594 15.08843826101386,6917.869,95.437,540.813,538.655,0.0
52380.0,STARLINK-3793,PAYLOAD,2024-02-10 01:44:39,15.08831945,0.0001478,53.2187,344.7201,96.6849,263.4311,3.9514e-05,3.41e-06,0.0,0 STARLINK-3793,1 52380U 22045BB  24041.07267862  .00000341  00000-0  39514-4 0  9994,2 52380  53.2187 344.7201 0001478  96.6849 263.4311 15.08831945101533,6917.905,95.438,540.792,538.748,0.0
52380.0,STARLINK-3793,PAYLOAD,2024-02-10 19:13:55,15.08816078,0.000148,53.2184,341.4479,103.5339,256.5818,-2.8496e-05,-7.41e-06,0.0,0 STARLINK-3793,1 52380U 22045BB  24041.80133839 -.00000741  00000-0 -28496-4 0  9994,2 52380  53.2184 341.4479 0001480 103.5339 256.5818 15.08816078101643,6917.954,95.439,540.842,538.795,0.0
52380.0,STARLINK-3793,PAYLOAD,2024-02-11 03:10:48,15.08866631,0.0001401,53.2181,339.9627,85.1675,274.9477,0.00028004,4.175e-05,0.0,0 STARLINK-3793,1 52380U 22045BB  24042.13250011  .00004175  00000-0  28004-3 0  9990,2 52380  53.2181 339.9627 0001401  85.1675 274.9477 15.08866631101698,6917.799,95.436,540.633,538.695,0.0
52380.0,STARLINK-3793,PAYLOAD,2024-02-11 04:46:10,15.0886851,0.0001371,53.218,339.6649,97.753,262.3617,0.00028817,4.305e-05,0.0,0 STARLINK-3793,1 52380U 22045BB  24042.19873682  .00004305  00000-0  28817-3 0  9998,2 52380  53.2180 339.6649 0001371  97.7530 262.3617 15.08868510101700,6917.793,95.436,540.607,538.71,0.0
52380.0,STARLINK-3793,PAYLOAD,2024-02-12 03:01:35,15.08856651,0.0001671,53.219,335.4985,83.8343,276.284,0.00023535,3.461e-05,0.0,0 STARLINK-3793,1 52380U 22045BB  24043.12610103  .00003461  00000-0  23535-3 0  9993,2 52380  53.2190 335.4985 0001671  83.8343 276.2840 15.08856651101849,6917.829,95.437,540.85,538.539,0.0
52380.0,STARLINK-3793,PAYLOAD,2024-02-12 04:36:57,15.08868604,0.0001405,53.2182,335.1994,108.2191,251.8954,0.0003317,4.999e-05,0.0,0 STARLINK-3793,1 52380U 22045BB  24043.19232926  .00004999  00000-0  33170-3 0  9996,2 52380  53.2182 335.1994 0001405 108.2191 251.8954 15.08868604101852,6917.793,95.436,540.63,538.686,0.0
52380.0,STARLINK-3793,PAYLOAD,2024-02-12 18:55:29,15.0883717,0.000168,53.2192,332.514,154.4997,205.6078,-0.00029819,-5.03e-05,0.0,0 STARLINK-3793,1 52380U 22045BB  24043.78853305 -.00005030  00000-0 -29819-3 0  9995,2 52380  53.2192 332.5140 0001680 154.4997 205.6078 15.08837170101947,6917.889,95.438,540.916,538.592,0.0
52380.0,STARLINK-3793,PAYLOAD,2024-02-13 02:52:24,15.08838143,0.0001165,53.2178,331.038,91.9612,268.1513,-9.0194e-05,-1.723e-05,0.0,0 STARLINK-3793,1 52380U 22045BB  24044.11972530 -.00001723  00000-0 -90194-4 0  9995,2 52380  53.2178 331.0380 0001165  91.9612 268.1513 15.08838143101992,6917.886,95.438,540.557,538.945,0.0
52380.0,STARLINK-3793,PAYLOAD,2024-02-13 04:27:46,15.08844611,0.0001251,53.2176,330.7389,104.742,255.3711,-3.8441e-05,-9e-06,0.0,0 STARLINK-3793,1 52380U 22045BB  24044.18595981 -.00000900  00000-0 -38441-4 0  9996,2 52380  53.2176 330.7389 0001251 104.7420 255.3711 15.08844611102009,6917.866,95.437,540.597,538.866,0.0
52380.0,STARLINK-3793,PAYLOAD,2024-02-13 12:24:42,15.08851953,0.0001565,53.2181,329.2549,81.3376,278.7793,-0.00023197,-3.979e-05,0.0,0 STARLINK-3793,1 52380U 22045BB  24044.51715915 -.00003979  00000-0 -23197-3 0  9994,2 52380  53.2181 329.2549 0001565  81.3376 278.7793 15.08851953102055,6917.844,95.437,540.791,538.626,0.0
52380.0,STARLINK-3793,PAYLOAD,2024-02-14 04:18:32,15.08862676,0.0001477,53.2177,326.2747,104.2846,255.831,-6.1674e-05,-1.27e-05,0.0,0 STARLINK-3793,1 52380U 22045BB  24045.17954361 -.00001270  00000-0 -61674-4 0  9992,2 52380  53.2177 326.2747 0001477 104.2846 255.8310 15.08862676102152,6917.811,95.436,540.698,538.654,0.0
52380.0,STARLINK-3793,PAYLOAD,2024-02-14 12:15:28,15.08851628,0.000143,53.2184,324.7932,100.4992,259.6161,-0.00015376,-2.735e-05,0.0,0 STARLINK-3793,1 52380U 22045BB  24045.51075048 -.00002735  00000-0 -15376-3 0  9990,2 52380  53.2184 324.7932 0001430 100.4992 259.6161 15.08851628102205,6917.845,95.437,540.699,538.721,0.0
52380.0,STARLINK-3793,PAYLOAD,2024-02-14 21:47:48,15.08835175,0.0001516,53.2177,323.0076,100.9729,259.1434,6.4827e-05,7.44e-06,0.0,0 STARLINK-3793,1 52380U 22045BB  24045.90820082  .00000744  00000-0  64827-4 0  9991,2 52380  53.2177 323.0076 0001516 100.9729 259.1434 15.08835175102269,6917.895,95.438,540.809,538.711,0.0
52380.0,STARLINK-3793,PAYLOAD,2024-02-15 00:58:34,15.08839984,0.0001603,53.2182,322.4133,99.8865,260.2309,8.615e-05,1.083e-05,0.0,0 STARLINK-3793,1 52380U 22045BB  24046.04067747  .00001083  00000-0  86150-4 0  9998,2 52380  53.2182 322.4133 0001603  99.8865 260.2309 15.08839984102284,6917.88,95.438,540.854,538.637,0.0
52380.0,STARLINK-3793,PAYLOAD,2024-02-15 04:09:20,15.08841338,0.0001635,53.2177,321.8175,105.2517,254.8655,9.5522e-05,1.233e-05,0.0,0 STARLINK-3793,1 52380U 22045BB  24046.17315593  .00001233  00000-0  95522-4 0  9997,2 52380  53.2177 321.8175 0001635 105.2517 254.8655 15.08841338102300,6917.876,95.437,540.872,538.61,0.0
52380.0,STARLINK-3793,PAYLOAD,2024-02-15 21:38:35,15.08836327,0.0001753,53.2165,318.5446,114.7806,245.3369,5.899e-06,-1.94e-06,0.0,0 STARLINK-3793,1 52380U 22045BB  24046.90180355 -.00000194  00000-0  58990-5 0  9999,2 52380  53.2165 318.5446 0001753 114.7806 245.3369 15.08836327102419,6917.892,95.438,540.969,538.544,0.0
52380.0,STARLINK-3793,PAYLOAD,2024-02-16 10:21:40,15.08846667,0.0001295,53.2177,316.1701,87.0355,273.0786,-4.9748e-05,-1.08e-05,0.0,0 STARLINK-3793,1 52380U 22045BB  24047.43171895 -.00001080  00000-0 -49748-4 0  9993,2 52380  53.2177 316.1701 0001295  87.0355 273.0786 15.08846667102499,6917.86,95.437,540.621,538.829,0.0
52380.0,STARLINK-3793,PAYLOAD,2024-02-16 21:29:22,15.08839068,0.000138,53.2174,314.0872,98.5098,261.6051,8.8349e-05,1.118e-05,0.0,0 STARLINK-3793,1 52380U 22045BB  24047.89540070  .00001118  00000-0  88349-4 0  9998,2 52380  53.2174 314.0872 0001380  98.5098 261.6051 15.08839068102561,6917.883,95.438,540.703,538.794,0.0
52380.0,STARLINK-3793,PAYLOAD,2024-02-17 10:12:27,15.08848219,0.0001265,53.2172,311.7137,108.0978,252.0152,6.5679e-05,7.58e-06,0.0,0 STARLINK-3793,1 52380U 22045BB  24048.42531458  .00000758  00000-0  65679-4 0  9998,2 52380  53.2172 311.7137 0001265 108.0978 252.0152 15.08848219102646,6917.855,95.437,540.595,538.845,0.0
52380.0,STARLINK-3793,PAYLOAD,2024-02-17 18:09:23,15.08837782,0.0001782,53.2181,310.226,106.2381,253.8807,2.0459e-05,3.8e-07,0.0,0 STARLINK-3793,1 52380U 22045BB  24048.75652491  .00000038  00000-0  20459-4 0  9993,2 52380  53.2181 310.2260 0001782 106.2381 253.8807 15.08837782102693,6917.887,95.438,540.985,538.519,0.0
52380.0,STARLINK-3793,PAYLOAD,2024-02-17 22:55:33,15.08834629,0.0001569,53.219,309.335,110.3626,249.7535,-1.6624e-05,-5.53e-06,0.0,0 STARLINK-3793,1 52380U 22045BB  24048.95524810 -.00000553  00000-0 -16624-4 0  9991,2 52380  53.2190 309.3350 0001569 110.3626 249.7535 15.08834629102726,6917.897,95.438,540.847,538.676,0.0
52380.0,STARLINK-3793,PAYLOAD,2024-02-18 10:03:15,15.08838341,0.0001225,53.2177,307.2512,97.383,262.7302,5.7482e-05,6.27e-06,0.0,0 STARLINK-3793,1 52380U 22045BB  24049.41892468  .00000627  00000-0  57482-4 0  9997,2 52380  53.2177 307.2512 0001225  97.3830 262.7302 15.08838341102797,6917.885,95.438,540.598,538.903,0.0
52380.0,STARLINK-3793,PAYLOAD,2024-02-18 22:46:19,15.08847582,0.000119,53.2163,304.8715,94.4727,265.6402,4.0622e-05,3.59e-06,0.0,0 STARLINK-3793,1 52380U 22045BB  24049.94883943  .00000359  00000-0  40622-4 0  9993,2 52380  53.2163 304.8715 0001190  94.4727 265.6402 15.08847582102873,6917.857,95.437,540.545,538.899,0.0
52380.0,STARLINK-3793,PAYLOAD,2024-02-19 01:57:05,15.08855363,0.0001439,53.218,304.2764,92.1747,267.941,6.6398e-05,7.69e-06,0.0,0 STARLINK-3793,1 52380U 22045BB  24050.08131429  .00000769  00000-0  66398-4 0  9998,2 52380  53.2180 304.2764 0001439  92.1747 267.9410 15.08855363102895,6917.833,95.437,540.694,538.703,0.0
52380.0,STARLINK-3793,PAYLOAD,2024-02-19 09:54:01,15.08844171,0.0001525,53.2168,302.7889,81.0506,279.0659,4.2079e-05,3.82e-06,0.0,0 STARLINK-3793,1 52380U 22045BB  24050.41252149  .00000382  00000-0  42079-4 0  9999,2 52380  53.2168 302.7889 0001525  81.0506 279.0659 15.08844171102948,6917.868,95.437,540.788,538.678,0.0
52380.0,STARLINK-3793,PAYLOAD,2024-02-19 22:37:08,15.08827198,0.0001544,53.2182,300.4117,81.4559,278.6608,-6.6742e-06,-3.94e-06,0.0,0 STARLINK-3793,1 52380U 22045BB  24050.94245655 -.00000394  00000-0 -66742-5 0  9990,2 52380  53.2182 300.4117 0001544  81.4559 278.6608 15.08827198103025,6917.92,95.438,540.853,538.716,0.0
